[{"OBJECT_NAME":"STARLINK-34699","OBJECT_ID":"2025-157T","EPOCH":"2026-03-09T01:12:43.593984","MEAN_MOTION":15.30200675,"ECCENTRICITY":0.00012655,"INCLINATION":53.1605,"RA_OF_ASC_NODE":348.8012,"ARG_OF_PERICENTER":70.551,"MEAN_ANOMALY":289.5628,"EPHEMERIS_TYPE":0,"CLASSIFICATION_TYPE":"U","NORAD_CAT_ID":64921,"ELEMENT_SET_NO":999,"REV_AT_EPOCH":3602,"BSTAR":0.00040136469,"MEAN_MOTION_DOT":0.00011547,"MEAN_MOTION_DDOT":0},{"OBJECT_NAME":"CZ-6A DEB","OBJECT_ID":"2022-151TQ","EPOCH":"2026-03-09T06:57:26.684352","MEAN_MOTION":15.22919125,"ECCENTRICITY":0.00409545,"INCLINATION":98.8216,"RA_OF_ASC_NODE":191.4692,"ARG_OF_PERICENTER":160.8215,"MEAN_ANOMALY":199.457,"EPHEMERIS_TYPE":0,"CLASSIFICATION_TYPE":"U","NORAD_CAT_ID":54975,"ELEMENT_SET_NO":999,"REV_AT_EPOCH":17711,"BSTAR":0.0066825196,"MEAN_MOTION_DOT":0.00163663,"MEAN_MOTION_DDOT":0}]
